{"type": "FeatureCollection", "features": [ {"type": "Feature", "properties": {"norad_id": 66829, "name": "STARLINK-36084", "group": "last-30-days", "lat": -37.955382311576756, "lon": 152.10171703539567, "alt_km": 413.51673769516583, "timestamp": "2025-12-23T14:49:07.965795+00:00", "meta": {"OBJECT_NAME": "STARLINK-36084", "OBJECT_ID": "2025-280J", "EPOCH": "2025-12-23T02:37:26.437728", "MEAN_MOTION": 15.52520315, "ECCENTRICITY": 0.0003499, "INCLINATION": 70.0004, "RA_OF_ASC_NODE": 169.9983, "ARG_OF_PERICENTER": 272.7793, "MEAN_ANOMALY": 87.2994, "EPHEMERIS_TYPE": 0, "CLASSIFICATION_TYPE": "U", "NORAD_CAT_ID": 66829, "ELEMENT_SET_NO": 999, "REV_AT_EPOCH": 454, "BSTAR": 0.00053782262, "MEAN_MOTION_DOT": 0.0003306, "MEAN_MOTION_DDOT": 0}, "tle": {"line1": "1 66829U 25280J   25357.10933377  .00033060  00000+0  53782-3 0  9992", "line2": "2 66829  70.0004 169.9983 0003499 272.7793  87.2994 15.52520315  4542"}}, "geometry": {"type": "Point", "coordinates": [152.10171703539567, -37.955382311576756]}}, {"type": "Feature", "properties": {"norad_id": 66830, "name": "STARLINK-35881", "group": "last-30-days", "lat": -34.45234789014973, "lon": 154.13181267514963, "alt_km": 413.2988685641458, "timestamp": "2025-12-23T14:49:07.965822+00:00", "meta": {"OBJECT_NAME": "STARLINK-35881", "OBJECT_ID": "2025-280K", "EPOCH": "2025-12-23T01:03:40.793760", "MEAN_MOTION": 15.52518835, "ECCENTRICITY": 0.00033239, "INCLINATION": 70.0003, "RA_OF_ASC_NODE": 170.1717, "ARG_OF_PERICENTER": 274.4665, "MEAN_ANOMALY": 85.6142, "EPHEMERIS_TYPE": 0, "CLASSIFICATION_TYPE": "U", "NORAD_CAT_ID": 66830, "ELEMENT_SET_NO": 999, "REV_AT_EPOCH": 453, "BSTAR": 0.0013800622, "MEAN_MOTION_DOT": 0.00085655, "MEAN_MOTION_DDOT": 0}, "tle": {"line1": "1 66830U 25280K   25357.04422215  .00085655  00000+0  13801-2 0  9995", "line2": "2 66830  70.0003 170.1717 0003323 274.4665  85.6142 15.52518835  4535"}}, "geometry": {"type": "Point", "coordinates": [154.13181267514963, -34.45234789014973]}}, {"type": "Feature", "properties": {"norad_id": 66831, "name": "STARLINK-35788", "group": "last-30-days", "lat": -32.689361582436064, "lon": 155.08351513895826, "alt_km": 413.2363394994409, "timestamp": "2025-12-23T14:49:07.965839+00:00", "meta": {"OBJECT_NAME": "STARLINK-35788", "OBJECT_ID": "2025-280L", "EPOCH": "2025-12-23T04:08:44.748096", "MEAN_MOTION": 15.5255268, "ECCENTRICITY": 0.00035201, "INCLINATION": 70.0001, "RA_OF_ASC_NODE": 169.8183, "ARG_OF_PERICENTER": 271.2035, "MEAN_ANOMALY": 88.8749, "EPHEMERIS_TYPE": 0, "CLASSIFICATION_TYPE": "U", "NORAD_CAT_ID": 66831, "ELEMENT_SET_NO": 999, "REV_AT_EPOCH": 455, "BSTAR": 0.0014139155, "MEAN_MOTION_DOT": 0.00087894, "MEAN_MOTION_DDOT": 0}, "tle": {"line1": "1 66831U 25280L   25357.17274014  .00087894  00000+0  14139-2 0  9994", "line2": "2 66831  70.0001 169.8183 0003520 271.2035  88.8749 15.52552680  4557"}}, "geometry": {"type": "Point", "coordinates": [155.08351513895826, -32.689361582436064]}}, {"type": "Feature", "properties": {"norad_id": 66832, "name": "STARLINK-35768", "group": "last-30-days", "lat": -30.922218131847448, "lon": 155.99566058633818, "alt_km": 413.3170584398804, "timestamp": "2025-12-23T14:49:07.965856+00:00", "meta": {"OBJECT_NAME": "STARLINK-35768", "OBJECT_ID": "2025-280M", "EPOCH": "2025-12-23T04:08:15.049824", "MEAN_MOTION": 15.5257172, "ECCENTRICITY": 0.00031126, "INCLINATION": 70.0002, "RA_OF_ASC_NODE": 169.8163, "ARG_OF_PERICENTER": 272.8121, "MEAN_ANOMALY": 87.271, "EPHEMERIS_TYPE": 0, "CLASSIFICATION_TYPE": "U", "NORAD_CAT_ID": 66832, "ELEMENT_SET_NO": 999, "REV_AT_EPOCH": 455, "BSTAR": 0.00097259089, "MEAN_MOTION_DOT": 0.00060235, "MEAN_MOTION_DDOT": 0}, "tle": {"line1": "1 66832U 25280M   25357.17239641  .00060235  00000+0  97259-3 0  9997", "line2": "2 66832  70.0002 169.8163 0003112 272.8121  87.2710 15.52571720  4554"}}, "geometry": {"type": "Point", "coordinates": [155.99566058633818, -30.922218131847448]}}, {"type": "Feature", "properties": {"norad_id": 66833, "name": "STARLINK-35858", "group": "last-30-days", "lat": -29.16763889436633, "lon": 156.8666484554946, "alt_km": 413.0351997758935, "timestamp": "2025-12-23T14:49:07.965872+00:00", "meta": {"OBJECT_NAME": "STARLINK-35858", "OBJECT_ID": "2025-280N", "EPOCH": "2025-12-23T04:07:45.530400", "MEAN_MOTION": 15.52568916, "ECCENTRICITY": 0.00031872, "INCLINATION": 70.0001, "RA_OF_ASC_NODE": 169.8157, "ARG_OF_PERICENTER": 278.575, "MEAN_ANOMALY": 81.5076, "EPHEMERIS_TYPE": 0, "CLASSIFICATION_TYPE": "U", "NORAD_CAT_ID": 66833, "ELEMENT_SET_NO": 999, "REV_AT_EPOCH": 455, "BSTAR": 0.0011713739, "MEAN_MOTION_DOT": 0.00072688, "MEAN_MOTION_DDOT": 0}, "tle": {"line1": "1 66833U 25280N   25357.17205475  .00072688  00000+0  11714-2 0  9992", "line2": "2 66833  70.0001 169.8157 0003187 278.5750  81.5076 15.52568916  4555"}}, "geometry": {"type": "Point", "coordinates": [156.8666484554946, -29.16763889436633]}}, {"type": "Feature", "properties": {"norad_id": 66834, "name": "STARLINK-35840", "group": "last-30-days", "lat": -27.411157985392745, "lon": 157.70515694856314, "alt_km": 412.92932509601906, "timestamp": "2025-12-23T14:49:07.965896+00:00", "meta": {"OBJECT_NAME": "STARLINK-35840", "OBJECT_ID": "2025-280P", "EPOCH": "2025-12-23T04:07:16.034304", "MEAN_MOTION": 15.52553243, "ECCENTRICITY": 0.00033502, "INCLINATION": 70.0004, "RA_OF_ASC_NODE": 169.8134, "ARG_OF_PERICENTER": 276.4184, "MEAN_ANOMALY": 83.6621, "EPHEMERIS_TYPE": 0, "CLASSIFICATION_TYPE": "U", "NORAD_CAT_ID": 66834, "ELEMENT_SET_NO": 999, "REV_AT_EPOCH": 455, "BSTAR": 0.0017320682, "MEAN_MOTION_DOT": 0.00107983, "MEAN_MOTION_DDOT": 0}, "tle": {"line1": "1 66834U 25280P   25357.17171336  .00107983  00000+0  17321-2 0  9998", "line2": "2 66834  70.0004 169.8134 0003350 276.4184  83.6621 15.52553243  4550"}}, "geometry": {"type": "Point", "coordinates": [157.70515694856314, -27.411157985392745]}}, {"type": "Feature", "properties": {"norad_id": 66835, "name": "STARLINK-35890", "group": "last-30-days", "lat": -25.678532488812227, "lon": 158.5048640087307, "alt_km": 413.1848136025583, "timestamp": "2025-12-23T14:49:07.965917+00:00", "meta": {"OBJECT_NAME": "STARLINK-35890", "OBJECT_ID": "2025-280Q", "EPOCH": "2025-12-23T04:06:46.383552", "MEAN_MOTION": 15.52544188, "ECCENTRICITY": 0.00032097, "INCLINATION": 70.0003, "RA_OF_ASC_NODE": 169.812, "ARG_OF_PERICENTER": 272.2886, "MEAN_ANOMALY": 87.7933, "EPHEMERIS_TYPE": 0, "CLASSIFICATION_TYPE": "U", "NORAD_CAT_ID": 66835, "ELEMENT_SET_NO": 999, "REV_AT_EPOCH": 455, "BSTAR": 0.0010930777, "MEAN_MOTION_DOT": 0.00067715, "MEAN_MOTION_DDOT": 0}, "tle": {"line1": "1 66835U 25280Q   25357.17137018  .00067715  00000+0  10931-2 0  9996", "line2": "2 66835  70.0003 169.8120 0003209 272.2886  87.7933 15.52544188  4550"}}, "geometry": {"type": "Point", "coordinates": [158.5048640087307, -25.678532488812227]}}, {"type": "Feature", "properties": {"norad_id": 66836, "name": "STARLINK-35838", "group": "last-30-days", "lat": -23.86145304950129, "lon": 159.31642650232723, "alt_km": 412.93625584169786, "timestamp": "2025-12-23T14:49:07.965928+00:00", "meta": {"OBJECT_NAME": "STARLINK-35838", "OBJECT_ID": "2025-280R", "EPOCH": "2025-12-23T04:06:16.619616", "MEAN_MOTION": 15.52567573, "ECCENTRICITY": 0.00030995, "INCLINATION": 70.0003, "RA_OF_ASC_NODE": 169.8101, "ARG_OF_PERICENTER": 276.6137, "MEAN_ANOMALY": 83.4697, "EPHEMERIS_TYPE": 0, "CLASSIFICATION_TYPE": "U", "NORAD_CAT_ID": 66836, "ELEMENT_SET_NO": 999, "REV_AT_EPOCH": 455, "BSTAR": 0.0011193526, "MEAN_MOTION_DOT": 0.00069419, "MEAN_MOTION_DDOT": 0}, "tle": {"line1": "1 66836U 25280R   25357.17102569  .00069419  00000+0  11194-2 0  9995", "line2": "2 66836  70.0003 169.8101 0003099 276.6137  83.4697 15.52567573  4557"}}, "geometry": {"type": "Point", "coordinates": [159.31642650232723, -23.86145304950129]}}, {"type": "Feature", "properties": {"norad_id": 66837, "name": "STARLINK-35729", "group": "last-30-days", "lat": -22.09358117485415, "lon": 160.08309722093347, "alt_km": 412.85902058424017, "timestamp": "2025-12-23T14:49:07.965938+00:00", "meta": {"OBJECT_NAME": "STARLINK-35729", "OBJECT_ID": "2025-280S", "EPOCH": "2025-12-23T04:05:47.151168", "MEAN_MOTION": 15.5255242, "ECCENTRICITY": 0.00030908, "INCLINATION": 70.0005, "RA_OF_ASC_NODE": 169.8086, "ARG_OF_PERICENTER": 275.3157, "MEAN_ANOMALY": 84.7678, "EPHEMERIS_TYPE": 0, "CLASSIFICATION_TYPE": "U", "NORAD_CAT_ID": 66837, "ELEMENT_SET_NO": 999, "REV_AT_EPOCH": 455, "BSTAR": 0.0016443267, "MEAN_MOTION_DOT": 0.00102426, "MEAN_MOTION_DDOT": 0}, "tle": {"line1": "1 66837U 25280S   25357.17068462  .00102426  00000+0  16443-2 0  9997", "line2": "2 66837  70.0005 169.8086 0003090 275.3157  84.7678 15.52552420  4559"}}, "geometry": {"type": "Point", "coordinates": [160.08309722093347, -22.09358117485415]}}, {"type": "Feature", "properties": {"norad_id": 66838, "name": "STARLINK-35886", "group": "last-30-days", "lat": -18.58513085292011, "lon": 161.54598499697266, "alt_km": 412.9145713080916, "timestamp": "2025-12-23T14:49:07.965950+00:00", "meta": {"OBJECT_NAME": "STARLINK-35886", "OBJECT_ID": "2025-280T", "EPOCH": "2025-12-23T02:32:00.984480", "MEAN_MOTION": 15.52529697, "ECCENTRICITY": 0.00031531, "INCLINATION": 70.0007, "RA_OF_ASC_NODE": 169.982, "ARG_OF_PERICENTER": 274.3235, "MEAN_ANOMALY": 85.7591, "EPHEMERIS_TYPE": 0, "CLASSIFICATION_TYPE": "U", "NORAD_CAT_ID": 66838, "ELEMENT_SET_NO": 999, "REV_AT_EPOCH": 454, "BSTAR": 0.00066002306, "MEAN_MOTION_DOT": 0.00040661, "MEAN_MOTION_DDOT": 0}, "tle": {"line1": "1 66838U 25280T   25357.10556695  .00040661  00000+0  66002-3 0  9990", "line2": "2 66838  70.0007 169.9820 0003153 274.3235  85.7591 15.52529697  4549"}}, "geometry": {"type": "Point", "coordinates": [161.54598499697266, -18.58513085292011]}}]}